CCSDS_OMM_VERS = 2.0
CREATION_DATE  = 
ORIGINATOR     = 

OBJECT_NAME    = SL-14 R/B
OBJECT_ID      = 1986-046B
CENTER_NAME    = EARTH
REF_FRAME      = TEME
TIME_SYSTEM    = UTC
MEAN_ELEMENT_THEORY = SGP/SGP4

EPOCH          = 2026-02-12T03:28:36.797376
MEAN_MOTION    = 14.85565562
ECCENTRICITY   = .0021966
INCLINATION    = 82.4808
RA_OF_ASC_NODE = 104.3230
ARG_OF_PERICENTER = 315.1959
MEAN_ANOMALY   = 44.7482

EPHEMERIS_TYPE = 0
CLASSIFICATION_TYPE = U
NORAD_CAT_ID   = 16792
ELEMENT_SET_NO = 999
REV_AT_EPOCH   = 12261
BSTAR          = .51986E-4
MEAN_MOTION_DOT = .475E-5
MEAN_MOTION_DDOT = 0

CCSDS_OMM_VERS = 2.0
CREATION_DATE  = 
ORIGINATOR     = 

OBJECT_NAME    = SL-14 R/B
OBJECT_ID      = 1986-055B
CENTER_NAME    = EARTH
REF_FRAME      = TEME
TIME_SYSTEM    = UTC
MEAN_ELEMENT_THEORY = SGP/SGP4

EPOCH          = 2026-02-11T19:44:10.059360
MEAN_MOTION    = 14.85615982
ECCENTRICITY   = .0020192
INCLINATION    = 82.5233
RA_OF_ASC_NODE = 150.9798
ARG_OF_PERICENTER = 60.2686
MEAN_ANOMALY   = 96.0853

EPHEMERIS_TYPE = 0
CLASSIFICATION_TYPE = U
NORAD_CAT_ID   = 16882
ELEMENT_SET_NO = 999
REV_AT_EPOCH   = 11552
BSTAR          = .63802266E-4
MEAN_MOTION_DOT = .579E-5
MEAN_MOTION_DDOT = 0

CCSDS_OMM_VERS = 2.0
CREATION_DATE  = 
ORIGINATOR     = 

OBJECT_NAME    = AJISAI (EGS)
OBJECT_ID      = 1986-061A
CENTER_NAME    = EARTH
REF_FRAME      = TEME
TIME_SYSTEM    = UTC
MEAN_ELEMENT_THEORY = SGP/SGP4

EPOCH          = 2026-02-12T04:14:55.836096
MEAN_MOTION    = 12.44515322
ECCENTRICITY   = .0011244
INCLINATION    = 50.0083
RA_OF_ASC_NODE = 171.7990
ARG_OF_PERICENTER = 221.2804
MEAN_ANOMALY   = 204.2445

EPHEMERIS_TYPE = 0
CLASSIFICATION_TYPE = U
NORAD_CAT_ID   = 16908
ELEMENT_SET_NO = 999
REV_AT_EPOCH   = 46482
BSTAR          = -.89647E-4
MEAN_MOTION_DOT = -.11E-5
MEAN_MOTION_DDOT = 0

CCSDS_OMM_VERS = 2.0
CREATION_DATE  = 
ORIGINATOR     = 

OBJECT_NAME    = COSMOS 1812
OBJECT_ID      = 1987-003A
CENTER_NAME    = EARTH
REF_FRAME      = TEME
TIME_SYSTEM    = UTC
MEAN_ELEMENT_THEORY = SGP/SGP4

EPOCH          = 2026-02-12T03:00:18.614880
MEAN_MOTION    = 15.97266287
ECCENTRICITY   = .0001986
INCLINATION    = 82.4760
RA_OF_ASC_NODE = 224.6756
ARG_OF_PERICENTER = 307.9257
MEAN_ANOMALY   = 52.1840

EPHEMERIS_TYPE = 0
CLASSIFICATION_TYPE = U
NORAD_CAT_ID   = 17295
ELEMENT_SET_NO = 999
REV_AT_EPOCH   = 14037
BSTAR          = .75526E-3
MEAN_MOTION_DOT = .32882E-2
MEAN_MOTION_DDOT = .42122E-4

CCSDS_OMM_VERS = 2.0
CREATION_DATE  = 
ORIGINATOR     = 

OBJECT_NAME    = SL-14 R/B
OBJECT_ID      = 1987-024B
CENTER_NAME    = EARTH
REF_FRAME      = TEME
TIME_SYSTEM    = UTC
MEAN_ELEMENT_THEORY = SGP/SGP4

EPOCH          = 2026-02-12T04:30:08.035200
MEAN_MOTION    = 14.86107781
ECCENTRICITY   = .0017857
INCLINATION    = 82.5285
RA_OF_ASC_NODE = 116.7335
ARG_OF_PERICENTER = 350.1372
MEAN_ANOMALY   = 9.9491

EPHEMERIS_TYPE = 0
CLASSIFICATION_TYPE = U
NORAD_CAT_ID   = 17567
ELEMENT_SET_NO = 999
REV_AT_EPOCH   = 8434
BSTAR          = .53242E-4
MEAN_MOTION_DOT = .492E-5
MEAN_MOTION_DDOT = 0

CCSDS_OMM_VERS = 2.0
CREATION_DATE  = 
ORIGINATOR     = 

OBJECT_NAME    = COSMOS 1833
OBJECT_ID      = 1987-027A
CENTER_NAME    = EARTH
REF_FRAME      = TEME
TIME_SYSTEM    = UTC
MEAN_ELEMENT_THEORY = SGP/SGP4

EPOCH          = 2026-02-12T00:31:49.487520
MEAN_MOTION    = 14.13057046
ECCENTRICITY   = .002491
INCLINATION    = 70.9219
RA_OF_ASC_NODE = 19.9615
ARG_OF_PERICENTER = 249.0129
MEAN_ANOMALY   = 110.8327

EPHEMERIS_TYPE = 0
CLASSIFICATION_TYPE = U
NORAD_CAT_ID   = 17589
ELEMENT_SET_NO = 999
REV_AT_EPOCH   = 669
BSTAR          = .35026E-4
MEAN_MOTION_DOT = .17E-6
MEAN_MOTION_DDOT = 0

CCSDS_OMM_VERS = 2.0
CREATION_DATE  = 
ORIGINATOR     = 

OBJECT_NAME    = SL-16 R/B
OBJECT_ID      = 1987-027B
CENTER_NAME    = EARTH
REF_FRAME      = TEME
TIME_SYSTEM    = UTC
MEAN_ELEMENT_THEORY = SGP/SGP4

EPOCH          = 2026-02-12T03:22:35.576256
MEAN_MOTION    = 14.17162923
ECCENTRICITY   = .0004886
INCLINATION    = 71.0047
RA_OF_ASC_NODE = 330.3321
ARG_OF_PERICENTER = 187.7731
MEAN_ANOMALY   = 172.3317

EPHEMERIS_TYPE = 0
CLASSIFICATION_TYPE = U
NORAD_CAT_ID   = 17590
ELEMENT_SET_NO = 999
REV_AT_EPOCH   = 1172
BSTAR          = -.45574E-4
MEAN_MOTION_DOT = -.14E-5
MEAN_MOTION_DDOT = 0

CCSDS_OMM_VERS = 2.0
CREATION_DATE  = 
ORIGINATOR     = 

OBJECT_NAME    = SL-14 R/B
OBJECT_ID      = 1987-038B
CENTER_NAME    = EARTH
REF_FRAME      = TEME
TIME_SYSTEM    = UTC
MEAN_ELEMENT_THEORY = SGP/SGP4

EPOCH          = 2026-02-12T04:03:57.756672
MEAN_MOTION    = 14.85344569
ECCENTRICITY   = .0017732
INCLINATION    = 82.5039
RA_OF_ASC_NODE = 320.8436
ARG_OF_PERICENTER = 247.5503
MEAN_ANOMALY   = 112.3835

EPHEMERIS_TYPE = 0
CLASSIFICATION_TYPE = U
NORAD_CAT_ID   = 17912
ELEMENT_SET_NO = 999
REV_AT_EPOCH   = 7544
BSTAR          = .6219E-4
MEAN_MOTION_DOT = .56E-5
MEAN_MOTION_DDOT = 0

CCSDS_OMM_VERS = 2.0
CREATION_DATE  = 
ORIGINATOR     = 

OBJECT_NAME    = COSMOS 1844
OBJECT_ID      = 1987-041A
CENTER_NAME    = EARTH
REF_FRAME      = TEME
TIME_SYSTEM    = UTC
MEAN_ELEMENT_THEORY = SGP/SGP4

EPOCH          = 2026-02-12T03:43:27.022368
MEAN_MOTION    = 14.14543950
ECCENTRICITY   = .0028938
INCLINATION    = 70.8980
RA_OF_ASC_NODE = 88.0376
ARG_OF_PERICENTER = 58.7677
MEAN_ANOMALY   = 301.6274

EPHEMERIS_TYPE = 0
CLASSIFICATION_TYPE = U
NORAD_CAT_ID   = 17973
ELEMENT_SET_NO = 999
REV_AT_EPOCH   = 99997
BSTAR          = .25471E-3
MEAN_MOTION_DOT = .443E-5
MEAN_MOTION_DDOT = 0

CCSDS_OMM_VERS = 2.0
CREATION_DATE  = 
ORIGINATOR     = 

OBJECT_NAME    = SL-14 R/B
OBJECT_ID      = 1987-055B
CENTER_NAME    = EARTH
REF_FRAME      = TEME
TIME_SYSTEM    = UTC
MEAN_ELEMENT_THEORY = SGP/SGP4

EPOCH          = 2026-02-12T00:23:11.503104
MEAN_MOTION    = 14.85597247
ECCENTRICITY   = .0022321
INCLINATION    = 82.5001
RA_OF_ASC_NODE = 13.2235
ARG_OF_PERICENTER = 97.7177
MEAN_ANOMALY   = 262.6575

EPHEMERIS_TYPE = 0
CLASSIFICATION_TYPE = U
NORAD_CAT_ID   = 18153
ELEMENT_SET_NO = 999
REV_AT_EPOCH   = 6612
BSTAR          = .69811E-4
MEAN_MOTION_DOT = .631E-5
MEAN_MOTION_DDOT = 0

CCSDS_OMM_VERS = 2.0
CREATION_DATE  = 
ORIGINATOR     = 

OBJECT_NAME    = COSMOS 1867
OBJECT_ID      = 1987-060A
CENTER_NAME    = EARTH
REF_FRAME      = TEME
TIME_SYSTEM    = UTC
MEAN_ELEMENT_THEORY = SGP/SGP4

EPOCH          = 2026-02-12T03:37:56.587296
MEAN_MOTION    = 14.31498915
ECCENTRICITY   = .001415
INCLINATION    = 65.0117
RA_OF_ASC_NODE = 18.2216
ARG_OF_PERICENTER = 276.8870
MEAN_ANOMALY   = 83.0604

EPHEMERIS_TYPE = 0
CLASSIFICATION_TYPE = U
NORAD_CAT_ID   = 18187
ELEMENT_SET_NO = 999
REV_AT_EPOCH   = 1628
BSTAR          = .33591E-4
MEAN_MOTION_DOT = -.11E-6
MEAN_MOTION_DDOT = 0

CCSDS_OMM_VERS = 2.0
CREATION_DATE  = 
ORIGINATOR     = 

OBJECT_NAME    = SL-14 R/B
OBJECT_ID      = 1988-001B
CENTER_NAME    = EARTH
REF_FRAME      = TEME
TIME_SYSTEM    = UTC
MEAN_ELEMENT_THEORY = SGP/SGP4

EPOCH          = 2026-02-12T00:13:51.925728
MEAN_MOTION    = 14.85496466
ECCENTRICITY   = .0017208
INCLINATION    = 82.5110
RA_OF_ASC_NODE = 219.5133
ARG_OF_PERICENTER = 327.5039
MEAN_ANOMALY   = 32.5116

EPHEMERIS_TYPE = 0
CLASSIFICATION_TYPE = U
NORAD_CAT_ID   = 18749
ELEMENT_SET_NO = 999
REV_AT_EPOCH   = 3821
BSTAR          = .64213E-4
MEAN_MOTION_DOT = .579E-5
MEAN_MOTION_DDOT = 0

