SL-14 R/B               
1 16792U 86046B   26043.14487034  .00000475  00000+0  51986-4 0  9993
2 16792  82.4808 104.3230 0021966 315.1959  44.7482 14.85565562122615
SL-14 R/B               
1 16882U 86055B   26042.82233865  .00000579  00000+0  63802-4 0  9993
2 16882  82.5233 150.9798 0020192  60.2686  96.0853 14.85615982115525
AJISAI (EGS)            
1 16908U 86061A   26043.17703514 -.00000110  00000+0 -89647-4 0  9999
2 16908  50.0083 171.7990 0011244 221.2804 204.2445 12.44515322464821
COSMOS 1812             
1 17295U 87003A   26043.12521545  .00328820  42122-4  75526-3 0  9998
2 17295  82.4760 224.6756 0001986 307.9257  52.1840 15.97266287140370
SL-14 R/B               
1 17567U 87024B   26043.18759300  .00000492  00000+0  53242-4 0  9999
2 17567  82.5285 116.7335 0017857 350.1372   9.9491 14.86107781 84347
COSMOS 1833             
1 17589U 87027A   26043.02210055  .00000017  00000+0  35026-4 0  9991
2 17589  70.9219  19.9615 0024910 249.0129 110.8327 14.13057046  6698
SL-16 R/B               
1 17590U 87027B   26043.14068954 -.00000140  00000+0 -45574-4 0  9993
2 17590  71.0047 330.3321 0004886 187.7731 172.3317 14.17162923 11729
SL-14 R/B               
1 17912U 87038B   26043.16941848  .00000560  00000+0  62190-4 0  9994
2 17912  82.5039 320.8436 0017732 247.5503 112.3835 14.85344569 75443
COSMOS 1844             
1 17973U 87041A   26043.15517387  .00000443  00000+0  25471-3 0  9991
2 17973  70.8980  88.0376 0028938  58.7677 301.6274 14.14543950999975
SL-14 R/B               
1 18153U 87055B   26043.01610536  .00000631  00000+0  69811-4 0  9998
2 18153  82.5001  13.2235 0022321  97.7177 262.6575 14.85597247 66120
COSMOS 1867             
1 18187U 87060A   26043.15134939 -.00000011  00000+0  33591-4 0  9993
2 18187  65.0117  18.2216 0014150 276.8870  83.0604 14.31498915 16289
SL-14 R/B               
1 18749U 88001B   26043.00962877  .00000579  00000+0  64213-4 0  9990
2 18749  82.5110 219.5133 0017208 327.5039  32.5116 14.85496466 38214
